{
  "norad_id": 60182,
  "name": "ALOS-4 (DAICHI-4)",
  "history": [
    {
      "epoch": "2026-03-26T20:23:01.330080",
      "apogee_km": 632.0473901313044,
      "perigee_km": 629.8904078819451,
      "latitude_deg": 75.37875324141167,
      "longitude_deg": 87.73481120006181,
      "semi_major_axis_km": 7009.105899006625,
      "eccentricity": 0.00015387,
      "inclination_deg": 97.9192,
      "raan_deg": 184.1997,
      "arg_perigee_deg": 100.5153,
      "mean_anomaly_deg": 259.6232,
      "mean_motion_rev_day": 14.79479083
    }
  ]
}